{"type": "FeatureCollection", "features": [ {"type": "Feature", "properties": {"norad_id": 39122, "name": "EUTELSAT 117 WEST A", "group": "eutelsat", "lat": -0.044754014911628864, "lon": -77.33960433381114, "alt_km": 35774.40077336713, "timestamp": "2025-12-19T20:42:59.752319+00:00", "meta": {"OBJECT_NAME": "EUTELSAT 117 WEST A", "OBJECT_ID": "2013-012A", "EPOCH": "2025-12-19T05:51:39.314592", "MEAN_MOTION": 1.00273001, "ECCENTRICITY": 0.00027105, "INCLINATION": 0.0298, "RA_OF_ASC_NODE": 48.9199, "ARG_OF_PERICENTER": 224.1187, "MEAN_ANOMALY": 146.1787, "EPHEMERIS_TYPE": 0, "CLASSIFICATION_TYPE": "U", "NORAD_CAT_ID": 39122, "ELEMENT_SET_NO": 999, "REV_AT_EPOCH": 4662, "BSTAR": 0, "MEAN_MOTION_DOT": 1.1e-07, "MEAN_MOTION_DDOT": 0}, "tle": {"line1": "1 39122U 13012A   25353.24420503  .00000011  00000+0  00000+0 0  9992", "line2": "2 39122   0.0298  48.9199 0002710 224.1187 146.1787  1.00273001 46629"}}, "geometry": {"type": "Point", "coordinates": [-77.33960433381114, -0.044754014911628864]}}, {"type": "Feature", "properties": {"norad_id": 39163, "name": "EUTELSAT 7B", "group": "eutelsat", "lat": 0.07165527273983462, "lon": 46.491857274310085, "alt_km": 35784.87429385851, "timestamp": "2025-12-19T20:42:59.752331+00:00", "meta": {"OBJECT_NAME": "EUTELSAT 7B", "OBJECT_ID": "2013-022A", "EPOCH": "2025-12-19T06:26:58.432704", "MEAN_MOTION": 1.00270274, "ECCENTRICITY": 0.00042834, "INCLINATION": 0.0652, "RA_OF_ASC_NODE": 356.9078, "ARG_OF_PERICENTER": 324.8571, "MEAN_ANOMALY": 230.1004, "EPHEMERIS_TYPE": 0, "CLASSIFICATION_TYPE": "U", "NORAD_CAT_ID": 39163, "ELEMENT_SET_NO": 999, "REV_AT_EPOCH": 4614, "BSTAR": 0, "MEAN_MOTION_DOT": 7.3e-07, "MEAN_MOTION_DDOT": 0}, "tle": {"line1": "1 39163U 13022A   25353.26873186  .00000073  00000+0  00000+0 0  9997", "line2": "2 39163   0.0652 356.9078 0004283 324.8571 230.1004  1.00270274 46140"}}, "geometry": {"type": "Point", "coordinates": [46.491857274310085, 0.07165527273983462]}}, {"type": "Feature", "properties": {"norad_id": 39612, "name": "EXPRESS-AT1", "group": "eutelsat", "lat": 0.04537288946204517, "lon": 95.42001513255227, "alt_km": 35784.26499549171, "timestamp": "2025-12-19T20:42:59.752343+00:00", "meta": {"OBJECT_NAME": "EXPRESS-AT1", "OBJECT_ID": "2014-010A", "EPOCH": "2025-12-19T04:58:14.432736", "MEAN_MOTION": 1.00268839, "ECCENTRICITY": 6.278e-05, "INCLINATION": 0.0247, "RA_OF_ASC_NODE": 333.23, "ARG_OF_PERICENTER": 136.0736, "MEAN_ANOMALY": 109.2997, "EPHEMERIS_TYPE": 0, "CLASSIFICATION_TYPE": "U", "NORAD_CAT_ID": 39612, "ELEMENT_SET_NO": 999, "REV_AT_EPOCH": 4301, "BSTAR": 0, "MEAN_MOTION_DOT": 0, "MEAN_MOTION_DDOT": 0}, "tle": {"line1": "1 39612U 14010A   25353.20711149  .00000000  00000+0  00000+0 0  9998", "line2": "2 39612   0.0247 333.2300 0000627 136.0736 109.2997  1.00268839 43013"}}, "geometry": {"type": "Point", "coordinates": [95.42001513255227, 0.04537288946204517]}}, {"type": "Feature", "properties": {"norad_id": 39613, "name": "EXPRESS-AT2", "group": "eutelsat", "lat": -0.0175431669255895, "lon": 179.28923030813363, "alt_km": 35787.605580836986, "timestamp": "2025-12-19T20:42:59.752355+00:00", "meta": {"OBJECT_NAME": "EXPRESS-AT2", "OBJECT_ID": "2014-010B", "EPOCH": "2025-12-19T07:04:55.947936", "MEAN_MOTION": 1.0027165, "ECCENTRICITY": 0.00010069, "INCLINATION": 0.0159, "RA_OF_ASC_NODE": 313.8, "ARG_OF_PERICENTER": 335.1745, "MEAN_ANOMALY": 45.2607, "EPHEMERIS_TYPE": 0, "CLASSIFICATION_TYPE": "U", "NORAD_CAT_ID": 39613, "ELEMENT_SET_NO": 999, "REV_AT_EPOCH": 4269, "BSTAR": 0, "MEAN_MOTION_DOT": -2.56e-06, "MEAN_MOTION_DDOT": 0}, "tle": {"line1": "1 39613U 14010B   25353.29509199 -.00000256  00000+0  00000+0 0  9992", "line2": "2 39613   0.0159 313.8000 0001006 335.1745  45.2607  1.00271650 42696"}}, "geometry": {"type": "Point", "coordinates": [179.28923030813363, -0.0175431669255895]}}, {"type": "Feature", "properties": {"norad_id": 39773, "name": "EUTELSAT 3B", "group": "eutelsat", "lat": 0.058212524830825244, "lon": 42.544465172374935, "alt_km": 35803.296518989766, "timestamp": "2025-12-19T20:42:59.752368+00:00", "meta": {"OBJECT_NAME": "EUTELSAT 3B", "OBJECT_ID": "2014-030A", "EPOCH": "2025-12-19T06:25:51.040704", "MEAN_MOTION": 1.00272348, "ECCENTRICITY": 0.00041863, "INCLINATION": 0.0607, "RA_OF_ASC_NODE": 3.7957, "ARG_OF_PERICENTER": 228.5486, "MEAN_ANOMALY": 315.3277, "EPHEMERIS_TYPE": 0, "CLASSIFICATION_TYPE": "U", "NORAD_CAT_ID": 39773, "ELEMENT_SET_NO": 999, "REV_AT_EPOCH": 4226, "BSTAR": 0, "MEAN_MOTION_DOT": 4.5e-07, "MEAN_MOTION_DDOT": 0}, "tle": {"line1": "1 39773U 14030A   25353.26795186  .00000045  00000+0  00000+0 0  9996", "line2": "2 39773   0.0607   3.7957 0004186 228.5486 315.3277  1.00272348 42268"}}, "geometry": {"type": "Point", "coordinates": [42.544465172374935, 0.058212524830825244]}}, {"type": "Feature", "properties": {"norad_id": 40425, "name": "EUTELSAT 115 WEST B", "group": "eutelsat", "lat": 0.008268796521203815, "lon": -75.45586966222963, "alt_km": 35784.54063224921, "timestamp": "2025-12-19T20:42:59.752380+00:00", "meta": {"OBJECT_NAME": "EUTELSAT 115 WEST B", "OBJECT_ID": "2015-010B", "EPOCH": "2025-12-19T00:43:56.394912", "MEAN_MOTION": 1.00271765, "ECCENTRICITY": 3.937e-05, "INCLINATION": 0.0157, "RA_OF_ASC_NODE": 151.5857, "ARG_OF_PERICENTER": 156.8592, "MEAN_ANOMALY": 35.5264, "EPHEMERIS_TYPE": 0, "CLASSIFICATION_TYPE": "U", "NORAD_CAT_ID": 40425, "ELEMENT_SET_NO": 999, "REV_AT_EPOCH": 3958, "BSTAR": 0, "MEAN_MOTION_DOT": 0, "MEAN_MOTION_DDOT": 0}, "tle": {"line1": "1 40425U 15010B   25353.03051383  .00000000  00000+0  00000+0 0  9991", "line2": "2 40425   0.0157 151.5857 0000393 156.8592  35.5264  1.00271765 39582"}}, "geometry": {"type": "Point", "coordinates": [-75.45586966222963, 0.008268796521203815]}}, {"type": "Feature", "properties": {"norad_id": 40875, "name": "EUTELSAT 8 WEST B", "group": "eutelsat", "lat": 0.054514767017335534, "lon": 31.49306350641674, "alt_km": 35795.876794179625, "timestamp": "2025-12-19T20:42:59.752392+00:00", "meta": {"OBJECT_NAME": "EUTELSAT 8 WEST B", "OBJECT_ID": "2015-039B", "EPOCH": "2025-12-19T06:22:36.351264", "MEAN_MOTION": 1.00271103, "ECCENTRICITY": 0.0004248, "INCLINATION": 0.0635, "RA_OF_ASC_NODE": 355.3467, "ARG_OF_PERICENTER": 273.872, "MEAN_ANOMALY": 266.5586, "EPHEMERIS_TYPE": 0, "CLASSIFICATION_TYPE": "U", "NORAD_CAT_ID": 40875, "ELEMENT_SET_NO": 999, "REV_AT_EPOCH": 3785, "BSTAR": 0, "MEAN_MOTION_DOT": -4.1e-07, "MEAN_MOTION_DDOT": 0}, "tle": {"line1": "1 40875U 15039B   25353.26569851 -.00000041  00000+0  00000+0 0  9996", "line2": "2 40875   0.0635 355.3467 0004248 273.8720 266.5586  1.00271103 37856"}}, "geometry": {"type": "Point", "coordinates": [31.49306350641674, 0.054514767017335534]}}, {"type": "Feature", "properties": {"norad_id": 41310, "name": "EUTELSAT 9B", "group": "eutelsat", "lat": -0.0022592842118950743, "lon": 48.47339832320342, "alt_km": 35798.97100758369, "timestamp": "2025-12-19T20:42:59.752403+00:00", "meta": {"OBJECT_NAME": "EUTELSAT 9B", "OBJECT_ID": "2016-005A", "EPOCH": "2025-12-19T06:27:28.384992", "MEAN_MOTION": 1.00272349, "ECCENTRICITY": 0.00044589, "INCLINATION": 0.0599, "RA_OF_ASC_NODE": 70.7944, "ARG_OF_PERICENTER": 203.8674, "MEAN_ANOMALY": 279.3171, "EPHEMERIS_TYPE": 0, "CLASSIFICATION_TYPE": "U", "NORAD_CAT_ID": 41310, "ELEMENT_SET_NO": 999, "REV_AT_EPOCH": 3631, "BSTAR": 0, "MEAN_MOTION_DOT": 8.6e-07, "MEAN_MOTION_DDOT": 0}, "tle": {"line1": "1 41310U 16005A   25353.26907853  .00000086  00000+0  00000+0 0  9991", "line2": "2 41310   0.0599  70.7944 0004458 203.8674 279.3171  1.00272349 36317"}}, "geometry": {"type": "Point", "coordinates": [48.47339832320342, -0.0022592842118950743]}}, {"type": "Feature", "properties": {"norad_id": 41382, "name": "EUTELSAT 65 WEST A", "group": "eutelsat", "lat": -0.0012889671398045779, "lon": -25.76247771894209, "alt_km": 35781.339173227214, "timestamp": "2025-12-19T20:42:59.752420+00:00", "meta": {"OBJECT_NAME": "EUTELSAT 65 WEST A", "OBJECT_ID": "2016-014A", "EPOCH": "2025-12-19T01:22:21.667872", "MEAN_MOTION": 1.00269562, "ECCENTRICITY": 0.00023081, "INCLINATION": 0.0547, "RA_OF_ASC_NODE": 329.1054, "ARG_OF_PERICENTER": 309.1269, "MEAN_ANOMALY": 125.0474, "EPHEMERIS_TYPE": 0, "CLASSIFICATION_TYPE": "U", "NORAD_CAT_ID": 41382, "ELEMENT_SET_NO": 999, "REV_AT_EPOCH": 3572, "BSTAR": 0, "MEAN_MOTION_DOT": -2.51e-06, "MEAN_MOTION_DDOT": 0}, "tle": {"line1": "1 41382U 16014A   25353.05719523 -.00000251  00000+0  00000+0 0  9997", "line2": "2 41382   0.0547 329.1054 0002308 309.1269 125.0474  1.00269562 35724"}}, "geometry": {"type": "Point", "coordinates": [-25.76247771894209, -0.0012889671398045779]}}, {"type": "Feature", "properties": {"norad_id": 41589, "name": "EUTELSAT 117 WEST B", "group": "eutelsat", "lat": 0.009616230745424071, "lon": -77.54143884461695, "alt_km": 35784.18221317601, "timestamp": "2025-12-19T20:42:59.752432+00:00", "meta": {"OBJECT_NAME": "EUTELSAT 117 WEST B", "OBJECT_ID": "2016-038B", "EPOCH": "2025-12-19T00:43:26.441760", "MEAN_MOTION": 1.00272207, "ECCENTRICITY": 4.142e-05, "INCLINATION": 0.0149, "RA_OF_ASC_NODE": 154.1508, "ARG_OF_PERICENTER": 133.0163, "MEAN_ANOMALY": 54.5907, "EPHEMERIS_TYPE": 0, "CLASSIFICATION_TYPE": "U", "NORAD_CAT_ID": 41589, "ELEMENT_SET_NO": 999, "REV_AT_EPOCH": 3485, "BSTAR": 0, "MEAN_MOTION_DOT": 1.3e-07, "MEAN_MOTION_DDOT": 0}, "tle": {"line1": "1 41589U 16038B   25353.03016715  .00000013  00000+0  00000+0 0  9998", "line2": "2 41589   0.0149 154.1508 0000414 133.0163  54.5907  1.00272207 34854"}}, "geometry": {"type": "Point", "coordinates": [-77.54143884461695, 0.009616230745424071]}}]}